[{"OBJECT_NAME":"STARLINK-2469","OBJECT_ID":"2021-027AN","EPOCH":"2026-03-09T09:17:04.188192","MEAN_MOTION":15.1882832,"ECCENTRICITY":0.0001315,"INCLINATION":53.1065,"RA_OF_ASC_NODE":102.3811,"ARG_OF_PERICENTER":92.2024,"MEAN_ANOMALY":267.9122,"EPHEMERIS_TYPE":0,"CLASSIFICATION_TYPE":"U","NORAD_CAT_ID":48128,"ELEMENT_SET_NO":999,"REV_AT_EPOCH":27335,"BSTAR":0.0010578489,"MEAN_MOTION_DOT":0.00022048,"MEAN_MOTION_DDOT":0},{"OBJECT_NAME":"THOR AGENA B R\/B","OBJECT_ID":"1965-098C","EPOCH":"2026-03-09T15:40:12.733824","MEAN_MOTION":12.27969783,"ECCENTRICITY":0.13310603,"INCLINATION":79.835,"RA_OF_ASC_NODE":125.8522,"ARG_OF_PERICENTER":232.6333,"MEAN_ANOMALY":114.6139,"EPHEMERIS_TYPE":0,"CLASSIFICATION_TYPE":"U","NORAD_CAT_ID":1807,"ELEMENT_SET_NO":999,"REV_AT_EPOCH":66108,"BSTAR":0.00040632197,"MEAN_MOTION_DOT":1.226e-5,"MEAN_MOTION_DDOT":0}]
